CTC2_L_00675007-03
1 10062U 24213ZE  26075.70050926  .00000000  00000+0  00000-0 0  9999
2 10062  55.0000 180.0000 0000000   0.0000 144.0000  1.91644749    15
CTC2_L_00675007-04
1 10063U 25810DW  26075.70050926  .00000000  00000+0  00000-0 0  9994
2 10063  55.0000 180.0000 0000000   0.0000 180.0000  1.91644749    16
CTC2_L_00675007-05
1 10064U 22141KT  26075.70050926  .00000000  00000+0  00000-0 0  9999
2 10064  55.0000 180.0000 0000000   0.0000 216.0000  1.91644749    17
CTC2_L_00675007-06
1 10065U 24747TW  26075.70050926  .00000000  00000+0  00000-0 0  9994
2 10065  55.0000 180.0000 0000000   0.0000 252.0000  1.91644749    18
CTC2_L_00675007-07
1 10066U 23909YR  26075.70050926  .00000000  00000+0  00000-0 0  9994
2 10066  55.0000 180.0000 0000000   0.0000 288.0000  1.91644749    18
CTC2_L_00675007-08
1 10067U 22843OT  26075.70050926  .00000000  00000+0  00000-0 0  9991
2 10067  55.0000 180.0000 0000000   0.0000 324.0000  1.91644749    10
CTC2_L_00675007-09
1 10068U 22077DJ  26075.70050926  .00000000  00000+0  00000-0 0  9991
2 10068  55.0000 180.0000 0000000   0.0000   0.0000  1.91644749    12
CTC2_L_00675007-10
1 10069U 26138KM  26075.70050926  .00000000  00000+0  00000-0 0  9994
2 10069  55.0000 180.0000 0000000   0.0000  36.0000  1.91644749    12
CTC2_L_00675008-01
1 10070U 22931RB  26075.70050926  .00000000  00000+0  00000-0 0  9993
2 10070  55.0000 210.0000 0000000   0.0000  84.0000  1.91644749    11
CTC2_L_00675008-02
1 10071U 23748YJ  26075.70050926  .00000000  00000+0  00000-0 0  9991
2 10071  55.0000 210.0000 0000000   0.0000 120.0000  1.91644749    13
CTC2_L_00675008-03
1 10072U 24943MX  26075.70050926  .00000000  00000+0  00000-0 0  9990
2 10072  55.0000 210.0000 0000000   0.0000 156.0000  1.91644749    13
CTC2_L_00675008-04
1 10073U 25768NX  26075.70050926  .00000000  00000+0  00000-0 0  9997
2 10073  55.0000 210.0000 0000000   0.0000 192.0000  1.91644749    14
CTC2_L_00675008-05
1 10074U 23482IL  26075.70050926  .00000000  00000+0  00000-0 0  9999
2 10074  55.0000 210.0000 0000000   0.0000 228.0000  1.91644749    15
CTC2_L_00675008-06
1 10075U 25716ZI  26075.70050926  .00000000  00000+0  00000-0 0  9992
2 10075  55.0000 210.0000 0000000   0.0000 264.0000  1.91644749    16
CTC2_L_00675008-07
1 10076U 24731UR  26075.70050926  .00000000  00000+0  00000-0 0  9999
2 10076  55.0000 210.0000 0000000   0.0000 300.0000  1.91644749    18
CTC2_L_00675008-08
1 10077U 26020FJ  26075.70050926  .00000000  00000+0  00000-0 0  9993
2 10077  55.0000 210.0000 0000000   0.0000 336.0000  1.91644749    18
CTC2_L_00675008-09
1 10078U 25749FC  26075.70050926  .00000000  00000+0  00000-0 0  9991
2 10078  55.0000 210.0000 0000000   0.0000  12.0000  1.91644749    10
CTC2_L_00675008-10
1 10079U 24858EV  26075.70050926  .00000000  00000+0  00000-0 0  9992
2 10079  55.0000 210.0000 0000000   0.0000  48.0000  1.91644749    10
CTC2_L_00675009-01
1 10080U 22679PH  26075.70050926  .00000000  00000+0  00000-0 0  9993
2 10080  55.0000 240.0000 0000000   0.0000  96.0000  1.91644749    18
CTC2_L_00675009-02
1 10081U 25467GQ  26075.70050926  .00000000  00000+0  00000-0 0  9992
2 10081  55.0000 240.0000 0000000   0.0000 132.0000  1.91644749    10
CTC2_L_00675009-03
1 10082U 26894LB  26075.70050926  .00000000  00000+0  00000-0 0  9998
2 10082  55.0000 240.0000 0000000   0.0000 168.0000  1.91644749    10
CTC2_L_00675009-04
1 10083U 25291HW  26075.70050926  .00000000  00000+0  00000-0 0  9999
2 10083  55.0000 240.0000 0000000   0.0000 204.0000  1.91644749    12
CTC2_L_00675009-05
1 10084U 23764IZ  26075.70050926  .00000000  00000+0  00000-0 0  9993
2 10084  55.0000 240.0000 0000000   0.0000 240.0000  1.91644749    13
CTC2_L_00675009-06
1 10085U 24438GJ  26075.70050926  .00000000  00000+0  00000-0 0  9993
2 10085  55.0000 240.0000 0000000   0.0000 276.0000  1.91644749    13
CTC2_L_00675009-07
1 10086U 25817GR  26075.70050926  .00000000  00000+0  00000-0 0  9996
2 10086  55.0000 240.0000 0000000   0.0000 312.0000  1.91644749    15
CTC2_L_00675009-08
1 10087U 24191TD  26075.70050926  .00000000  00000+0  00000-0 0  9991
2 10087  55.0000 240.0000 0000000   0.0000 348.0000  1.91644749    15
CTC2_L_00675009-09
1 10088U 22053AY  26075.70050926  .00000000  00000+0  00000-0 0  9997
2 10088  55.0000 240.0000 0000000   0.0000  24.0000  1.91644749    17
CTC2_L_00675009-10
1 10089U 24421ML  26075.70050926  .00000000  00000+0  00000-0 0  9999
2 10089  55.0000 240.0000 0000000   0.0000  60.0000  1.91644749    18
CTC2_L_00675010-01
1 10090U 22873FI  26075.70050926  .00000000  00000+0  00000-0 0  9990
2 10090  55.0000 270.0000 0000000   0.0000 108.0000  1.91644749    16
CTC2_L_00675010-02
1 10091U 26303PY  26075.70050926  .00000000  00000+0  00000-0 0  9993
2 10091  55.0000 270.0000 0000000   0.0000 144.0000  1.91644749    17
CTC2_L_00675010-03
1 10092U 23851KI  26075.70050926  .00000000  00000+0  00000-0 0  9999
2 10092  55.0000 270.0000 0000000   0.0000 180.0000  1.91644749    18
CTC2_L_00675010-04
1 10093U 26138HZ  26075.70050926  .00000000  00000+0  00000-0 0  9991
2 10093  55.0000 270.0000 0000000   0.0000 216.0000  1.91644749    19
CTC2_L_00675010-05
1 10094U 26062QF  26075.70050926  .00000000  00000+0  00000-0 0  9998
2 10094  55.0000 270.0000 0000000   0.0000 252.0000  1.91644749    10
CTC2_L_00675010-06
1 10095U 22852MU  26075.70050926  .00000000  00000+0  00000-0 0  9992
2 10095  55.0000 270.0000 0000000   0.0000 288.0000  1.91644749    10
CTC2_L_00675010-07
1 10096U 23663ZL  26075.70050926  .00000000  00000+0  00000-0 0  9994
2 10096  55.0000 270.0000 0000000   0.0000 324.0000  1.91644749    12
CTC2_L_00675010-08
1 10097U 23478ZO  26075.70050926  .00000000  00000+0  00000-0 0  9999
2 10097  55.0000 270.0000 0000000   0.0000   0.0000  1.91644749    14
CTC2_L_00675010-09
1 10098U 23014ER  26075.70050926  .00000000  00000+0  00000-0 0  9996
2 10098  55.0000 270.0000 0000000   0.0000  36.0000  1.91644749    14
CTC2_L_00675010-10
1 10099U 22031VD  26075.70050926  .00000000  00000+0  00000-0 0  9995
2 10099  55.0000 270.0000 0000000   0.0000  72.0000  1.91644749    15
CTC2_L_00675011-01
1 10100U 26005XP  26075.70050926  .00000000  00000+0  00000-0 0  9993
2 10100  55.0000 300.0000 0000000   0.0000 120.0000  1.91644749    16
CTC2_L_00675011-02
1 10101U 24455SS  26075.70050926  .00000000  00000+0  00000-0 0  9991
2 10101  55.0000 300.0000 0000000   0.0000 156.0000  1.91644749    16
CTC2_L_00675011-03
1 10102U 23158ZC  26075.70050926  .00000000  00000+0  00000-0 0  9991
2 10102  55.0000 300.0000 0000000   0.0000 192.0000  1.91644749    17
CTC2_L_00675011-04
1 10103U 23498IY  26075.70050926  .00000000  00000+0  00000-0 0  9999
2 10103  55.0000 300.0000 0000000   0.0000 228.0000  1.91644749    18
CTC2_L_00675011-05
1 10104U 24753AJ  26075.70050926  .00000000  00000+0  00000-0 0  9995
2 10104  55.0000 300.0000 0000000   0.0000 264.0000  1.91644749    19
CTC2_L_00675011-06
1 10105U 25449UY  26075.70050926  .00000000  00000+0  00000-0 0  9999
2 10105  55.0000 300.0000 0000000   0.0000 300.0000  1.91644749    11
CTC2_L_00675011-07
1 10106U 23778FM  26075.70050926  .00000000  00000+0  00000-0 0  9993
2 10106  55.0000 300.0000 0000000   0.0000 336.0000  1.91644749    11
CTC2_L_00675011-08
1 10107U 26355VF  26075.70050926  .00000000  00000+0  00000-0 0  9998
2 10107  55.0000 300.0000 0000000   0.0000  12.0000  1.91644749    13
CTC2_L_00675011-09
1 10108U 24447VT  26075.70050926  .00000000  00000+0  00000-0 0  9999
2 10108  55.0000 300.0000 0000000   0.0000  48.0000  1.91644749    13
CTC2_L_00675011-10
1 10109U 24754LF  26075.70050926  .00000000  00000+0  00000-0 0  9991
2 10109  55.0000 300.0000 0000000   0.0000  84.0000  1.91644749    14
CTC2_L_00675012-01
1 10110U 26534BL  26075.70050926  .00000000  00000+0  00000-0 0  9991
2 10110  55.0000 330.0000 0000000   0.0000 132.0000  1.91644749    13
CTC2_L_00675012-02
1 10111U 26397BB  26075.70050926  .00000000  00000+0  00000-0 0  9999
2 10111  55.0000 330.0000 0000000   0.0000 168.0000  1.91644749    13
CTC2_L_00675012-03
1 10112U 23134NH  26075.70050926  .00000000  00000+0  00000-0 0  9996
2 10112  55.0000 330.0000 0000000   0.0000 204.0000  1.91644749    15
CTC2_L_00675012-04
1 10113U 23725WF  26075.70050926  .00000000  00000+0  00000-0 0  9993
2 10113  55.0000 330.0000 0000000   0.0000 240.0000  1.91644749    16
CTC2_L_00675012-05
1 10114U 23481FC  26075.70050926  .00000000  00000+0  00000-0 0  9993
2 10114  55.0000 330.0000 0000000   0.0000 276.0000  1.91644749    16
CTC2_L_00675012-06
1 10115U 23510IW  26075.70050926  .00000000  00000+0  00000-0 0  9997
2 10115  55.0000 330.0000 0000000   0.0000 312.0000  1.91644749    18
CTC2_L_00675012-07
1 10116U 25614PG  26075.70050926  .00000000  00000+0  00000-0 0  9995
2 10116  55.0000 330.0000 0000000   0.0000 348.0000  1.91644749    18
CTC2_L_00675012-08
1 10117U 25861FI  26075.70050926  .00000000  00000+0  00000-0 0  9990
2 10117  55.0000 330.0000 0000000   0.0000  24.0000  1.91644749    10
CTC2_L_00675012-09
1 10118U 22110QN  26075.70050926  .00000000  00000+0  00000-0 0  9995
2 10118  55.0000 330.0000 0000000   0.0000  60.0000  1.91644749    11
CTC2_L_00675012-10
1 10119U 24914NC  26075.70050926  .00000000  00000+0  00000-0 0  9990
2 10119  55.0000 330.0000 0000000   0.0000  96.0000  1.91644749    11
